{"type": "FeatureCollection", "features": [ {"type": "Feature", "properties": {"norad_id": 29930, "name": "FENGYUN 1C DEB", "group": "fengyun-1c-debris", "lat": 2.710780793080927, "lon": 57.45387574195899, "alt_km": 922.5939412355483, "timestamp": "2025-12-20T14:38:02.242265+00:00", "meta": {"OBJECT_NAME": "FENGYUN 1C DEB", "OBJECT_ID": "1999-025JC", "EPOCH": "2025-12-20T04:14:20.444928", "MEAN_MOTION": 14.20825122, "ECCENTRICITY": 0.01643841, "INCLINATION": 99.0442, "RA_OF_ASC_NODE": 236.5785, "ARG_OF_PERICENTER": 32.4161, "MEAN_ANOMALY": 89.4852, "EPHEMERIS_TYPE": 0, "CLASSIFICATION_TYPE": "U", "NORAD_CAT_ID": 29930, "ELEMENT_SET_NO": 999, "REV_AT_EPOCH": 97996, "BSTAR": 0.0001831904, "MEAN_MOTION_DOT": 4.06e-06, "MEAN_MOTION_DDOT": 0}, "tle": {"line1": "1 29930U 99025JC  25354.17662552  .00000406  00000+0  18319-3 0  9995", "line2": "2 29930  99.0442 236.5785 0164384  32.4161  89.4852 14.20825122979965"}}, "geometry": {"type": "Point", "coordinates": [57.45387574195899, 2.710780793080927]}}, {"type": "Feature", "properties": {"norad_id": 29931, "name": "FENGYUN 1C DEB", "group": "fengyun-1c-debris", "lat": 57.491122830535005, "lon": 15.553202824443577, "alt_km": 851.8754088067217, "timestamp": "2025-12-20T14:38:02.242276+00:00", "meta": {"OBJECT_NAME": "FENGYUN 1C DEB", "OBJECT_ID": "1999-025JD", "EPOCH": "2025-12-20T00:58:09.304608", "MEAN_MOTION": 14.03900527, "ECCENTRICITY": 0.00324154, "INCLINATION": 98.8591, "RA_OF_ASC_NODE": 29.1641, "ARG_OF_PERICENTER": 73.9466, "MEAN_ANOMALY": 348.798, "EPHEMERIS_TYPE": 0, "CLASSIFICATION_TYPE": "U", "NORAD_CAT_ID": 29931, "ELEMENT_SET_NO": 999, "REV_AT_EPOCH": 96915, "BSTAR": 0.00032190252, "MEAN_MOTION_DOT": 4.67e-06, "MEAN_MOTION_DDOT": 0}, "tle": {"line1": "1 29931U 99025JD  25354.04038547  .00000467  00000+0  32190-3 0  9993", "line2": "2 29931  98.8591  29.1641 0032415  73.9466 348.7980 14.03900527969159"}}, "geometry": {"type": "Point", "coordinates": [15.553202824443577, 57.491122830535005]}}, {"type": "Feature", "properties": {"norad_id": 29932, "name": "FENGYUN 1C DEB", "group": "fengyun-1c-debris", "lat": 23.980103899989054, "lon": -171.0622871158968, "alt_km": 843.8325201746393, "timestamp": "2025-12-20T14:38:02.242286+00:00", "meta": {"OBJECT_NAME": "FENGYUN 1C DEB", "OBJECT_ID": "1999-025JE", "EPOCH": "2025-12-19T11:31:42.964032", "MEAN_MOTION": 14.16770472, "ECCENTRICITY": 0.0038374, "INCLINATION": 98.6338, "RA_OF_ASC_NODE": 3.9666, "ARG_OF_PERICENTER": 51.4918, "MEAN_ANOMALY": 106.6438, "EPHEMERIS_TYPE": 0, "CLASSIFICATION_TYPE": "U", "NORAD_CAT_ID": 29932, "ELEMENT_SET_NO": 999, "REV_AT_EPOCH": 97679, "BSTAR": 0.000227, "MEAN_MOTION_DOT": 4.15e-06, "MEAN_MOTION_DDOT": 0}, "tle": {"line1": "1 29932U 99025JE  25353.48035838  .00000415  00000+0  22700-3 0  9990", "line2": "2 29932  98.6338   3.9666 0038374  51.4918 106.6438 14.16770472976792"}}, "geometry": {"type": "Point", "coordinates": [-171.0622871158968, 23.980103899989054]}}, {"type": "Feature", "properties": {"norad_id": 29933, "name": "FENGYUN 1C DEB", "group": "fengyun-1c-debris", "lat": -7.730431400025403, "lon": -82.87645889336703, "alt_km": 678.7399019943596, "timestamp": "2025-12-20T14:38:02.242295+00:00", "meta": {"OBJECT_NAME": "FENGYUN 1C DEB", "OBJECT_ID": "1999-025JF", "EPOCH": "2025-12-20T05:50:46.140576", "MEAN_MOTION": 14.66113161, "ECCENTRICITY": 0.00051119, "INCLINATION": 98.7494, "RA_OF_ASC_NODE": 97.9315, "ARG_OF_PERICENTER": 300.6346, "MEAN_ANOMALY": 115.6629, "EPHEMERIS_TYPE": 0, "CLASSIFICATION_TYPE": "U", "NORAD_CAT_ID": 29933, "ELEMENT_SET_NO": 999, "REV_AT_EPOCH": 98615, "BSTAR": 0.0021279643, "MEAN_MOTION_DOT": 0.00011655, "MEAN_MOTION_DDOT": 0}, "tle": {"line1": "1 29933U 99025JF  25354.24358959  .00011655  00000+0  21280-2 0  9997", "line2": "2 29933  98.7494  97.9315 0005111 300.6346 115.6629 14.66113161986152"}}, "geometry": {"type": "Point", "coordinates": [-82.87645889336703, -7.730431400025403]}}, {"type": "Feature", "properties": {"norad_id": 29934, "name": "FENGYUN 1C DEB", "group": "fengyun-1c-debris", "lat": 54.633509389807394, "lon": 29.3474194657096, "alt_km": 746.145553414568, "timestamp": "2025-12-20T14:38:02.242305+00:00", "meta": {"OBJECT_NAME": "FENGYUN 1C DEB", "OBJECT_ID": "1999-025JG", "EPOCH": "2025-12-20T02:53:33.750528", "MEAN_MOTION": 14.63850029, "ECCENTRICITY": 0.01009239, "INCLINATION": 98.9034, "RA_OF_ASC_NODE": 41.5785, "ARG_OF_PERICENTER": 229.4513, "MEAN_ANOMALY": 129.7867, "EPHEMERIS_TYPE": 0, "CLASSIFICATION_TYPE": "U", "NORAD_CAT_ID": 29934, "ELEMENT_SET_NO": 999, "REV_AT_EPOCH": 99880, "BSTAR": 0.0005577984, "MEAN_MOTION_DOT": 3.076e-05, "MEAN_MOTION_DDOT": 0}, "tle": {"line1": "1 29934U 99025JG  25354.12052952  .00003076  00000+0  55780-3 0  9990", "line2": "2 29934  98.9034  41.5785 0100923 229.4513 129.7867 14.63850029998805"}}, "geometry": {"type": "Point", "coordinates": [29.3474194657096, 54.633509389807394]}}, {"type": "Feature", "properties": {"norad_id": 29935, "name": "FENGYUN 1C DEB", "group": "fengyun-1c-debris", "lat": -37.87660202535022, "lon": -130.25131358212147, "alt_km": 752.2498733047469, "timestamp": "2025-12-20T14:38:02.242315+00:00", "meta": {"OBJECT_NAME": "FENGYUN 1C DEB", "OBJECT_ID": "1999-025JH", "EPOCH": "2025-12-20T02:03:28.120032", "MEAN_MOTION": 14.1424192, "ECCENTRICITY": 0.01505502, "INCLINATION": 98.4606, "RA_OF_ASC_NODE": 55.9004, "ARG_OF_PERICENTER": 194.9589, "MEAN_ANOMALY": 236.2446, "EPHEMERIS_TYPE": 0, "CLASSIFICATION_TYPE": "U", "NORAD_CAT_ID": 29935, "ELEMENT_SET_NO": 999, "REV_AT_EPOCH": 97646, "BSTAR": 8.8090384e-05, "MEAN_MOTION_DOT": 1.46e-06, "MEAN_MOTION_DDOT": 0}, "tle": {"line1": "1 29935U 99025JH  25354.08574213  .00000146  00000+0  88090-4 0  9991", "line2": "2 29935  98.4606  55.9004 0150550 194.9589 236.2446 14.14241920976464"}}, "geometry": {"type": "Point", "coordinates": [-130.25131358212147, -37.87660202535022]}}, {"type": "Feature", "properties": {"norad_id": 29936, "name": "FENGYUN 1C DEB", "group": "fengyun-1c-debris", "lat": 46.75281719631033, "lon": -62.6625783134415, "alt_km": 699.7107426248585, "timestamp": "2025-12-20T14:38:02.242325+00:00", "meta": {"OBJECT_NAME": "FENGYUN 1C DEB", "OBJECT_ID": "1999-025JJ", "EPOCH": "2025-12-20T02:18:21.270528", "MEAN_MOTION": 14.35320423, "ECCENTRICITY": 0.01143646, "INCLINATION": 98.6565, "RA_OF_ASC_NODE": 107.5014, "ARG_OF_PERICENTER": 165.2944, "MEAN_ANOMALY": 195.1615, "EPHEMERIS_TYPE": 0, "CLASSIFICATION_TYPE": "U", "NORAD_CAT_ID": 29936, "ELEMENT_SET_NO": 999, "REV_AT_EPOCH": 99036, "BSTAR": 0.00013012462, "MEAN_MOTION_DOT": 3.55e-06, "MEAN_MOTION_DDOT": 0}, "tle": {"line1": "1 29936U 99025JJ  25354.09607952  .00000355  00000+0  13012-3 0  9993", "line2": "2 29936  98.6565 107.5014 0114364 165.2944 195.1615 14.35320423990360"}}, "geometry": {"type": "Point", "coordinates": [-62.6625783134415, 46.75281719631033]}}, {"type": "Feature", "properties": {"norad_id": 29937, "name": "FENGYUN 1C DEB", "group": "fengyun-1c-debris", "lat": 75.07806888031081, "lon": -20.167253624649646, "alt_km": 866.6972882282707, "timestamp": "2025-12-20T14:38:02.242336+00:00", "meta": {"OBJECT_NAME": "FENGYUN 1C DEB", "OBJECT_ID": "1999-025JK", "EPOCH": "2025-12-20T00:50:14.752608", "MEAN_MOTION": 14.04360632, "ECCENTRICITY": 0.00320623, "INCLINATION": 98.8019, "RA_OF_ASC_NODE": 14.8254, "ARG_OF_PERICENTER": 1.4355, "MEAN_ANOMALY": 51.4487, "EPHEMERIS_TYPE": 0, "CLASSIFICATION_TYPE": "U", "NORAD_CAT_ID": 29937, "ELEMENT_SET_NO": 999, "REV_AT_EPOCH": 97038, "BSTAR": -7.5548887e-05, "MEAN_MOTION_DOT": -1.63e-06, "MEAN_MOTION_DDOT": 0}, "tle": {"line1": "1 29937U 99025JK  25354.03489297 -.00000163  00000+0 -75549-4 0  9991", "line2": "2 29937  98.8019  14.8254 0032062   1.4355  51.4487 14.04360632970387"}}, "geometry": {"type": "Point", "coordinates": [-20.167253624649646, 75.07806888031081]}}, {"type": "Feature", "properties": {"norad_id": 29938, "name": "FENGYUN 1C DEB", "group": "fengyun-1c-debris", "lat": 81.1144270453541, "lon": -113.22396636431584, "alt_km": 883.2169562280842, "timestamp": "2025-12-20T14:38:02.242346+00:00", "meta": {"OBJECT_NAME": "FENGYUN 1C DEB", "OBJECT_ID": "1999-025JL", "EPOCH": "2025-12-20T05:43:28.631712", "MEAN_MOTION": 14.07462979, "ECCENTRICITY": 0.00326195, "INCLINATION": 98.8024, "RA_OF_ASC_NODE": 344.0585, "ARG_OF_PERICENTER": 289.1481, "MEAN_ANOMALY": 82.0283, "EPHEMERIS_TYPE": 0, "CLASSIFICATION_TYPE": "U", "NORAD_CAT_ID": 29938, "ELEMENT_SET_NO": 999, "REV_AT_EPOCH": 97162, "BSTAR": 5.8888181e-05, "MEAN_MOTION_DOT": 5.6e-07, "MEAN_MOTION_DDOT": 0}, "tle": {"line1": "1 29938U 99025JL  25354.23852583  .00000056  00000+0  58888-4 0  9992", "line2": "2 29938  98.8024 344.0585 0032619 289.1481  82.0283 14.07462979971624"}}, "geometry": {"type": "Point", "coordinates": [-113.22396636431584, 81.1144270453541]}}, {"type": "Feature", "properties": {"norad_id": 29939, "name": "FENGYUN 1C DEB", "group": "fengyun-1c-debris", "lat": -32.935684623044885, "lon": 168.27311023044214, "alt_km": 863.7801489673984, "timestamp": "2025-12-20T14:38:02.242356+00:00", "meta": {"OBJECT_NAME": "FENGYUN 1C DEB", "OBJECT_ID": "1999-025JM", "EPOCH": "2025-12-20T00:19:53.567616", "MEAN_MOTION": 14.12086142, "ECCENTRICITY": 0.00672188, "INCLINATION": 98.7098, "RA_OF_ASC_NODE": 353.3934, "ARG_OF_PERICENTER": 118.1227, "MEAN_ANOMALY": 306.6382, "EPHEMERIS_TYPE": 0, "CLASSIFICATION_TYPE": "U", "NORAD_CAT_ID": 29939, "ELEMENT_SET_NO": 999, "REV_AT_EPOCH": 97563, "BSTAR": 5.7229225e-05, "MEAN_MOTION_DOT": 6.5e-07, "MEAN_MOTION_DDOT": 0}, "tle": {"line1": "1 29939U 99025JM  25354.01381444  .00000065  00000+0  57229-4 0  9990", "line2": "2 29939  98.7098 353.3934 0067218 118.1227 306.6382 14.12086142975638"}}, "geometry": {"type": "Point", "coordinates": [168.27311023044214, -32.935684623044885]}}]}